[{"OBJECT_NAME":"LASARSAT","OBJECT_ID":"2024-247Q","EPOCH":"2026-03-08T09:18:51.031296","MEAN_MOTION":15.40076521,"ECCENTRICITY":0.0002457,"INCLINATION":44.9748,"RA_OF_ASC_NODE":105.9976,"ARG_OF_PERICENTER":26.6184,"MEAN_ANOMALY":333.4829,"EPHEMERIS_TYPE":0,"CLASSIFICATION_TYPE":"U","NORAD_CAT_ID":62391,"ELEMENT_SET_NO":999,"REV_AT_EPOCH":6774,"BSTAR":0.0011460197,"MEAN_MOTION_DOT":0.00046774,"MEAN_MOTION_DDOT":0},{"OBJECT_NAME":"STARLINK-36708","OBJECT_ID":"2026-025W","EPOCH":"2026-03-09T22:00:01.999584","MEAN_MOTION":15.50345873,"ECCENTRICITY":0.0001698,"INCLINATION":97.2843,"RA_OF_ASC_NODE":180.5299,"ARG_OF_PERICENTER":61.6948,"MEAN_ANOMALY":67.7006,"EPHEMERIS_TYPE":0,"CLASSIFICATION_TYPE":"U","NORAD_CAT_ID":67713,"ELEMENT_SET_NO":999,"REV_AT_EPOCH":595,"BSTAR":-0.032195086,"MEAN_MOTION_DOT":-0.01637708,"MEAN_MOTION_DDOT":0}]
